STARLINK-31812          
1 59800U 24093U   26068.42330934 -.00002089  00000+0 -66400-4 0  9990
2 59800  43.0000 210.4852 0001443 270.2523  89.8163 15.27577257102721
FLOCK 4G-3              
1 62639U 25009AG  26068.80174065  .00011494  00000+0  43389-3 0  9993
2 62639  97.4062 151.4068 0001320 293.2042  66.9058 15.27179310 63727
